      2.10          N: GNSS NAV DATA                        RINEX VERSION / TYPE
fic2rin                                 07/13/2022 00:17:20 PGM / RUN BY / DATE
                                                            END OF HEADER
20 22  7 12  1 59 44.0  .503968447447D-03 -.318323145621D-11  .000000000000D+00
     .240000000000D+02 -.136968750000D+03  .453447459335D-08  .205611447541D+01
    -.724941492081D-05  .476114323828D-02  .985525548458D-05  .515362063408D+04
     .179984000000D+06 -.447034835815D-07  .261871588853D+01  .316649675369D-07
     .944134752099D+00  .176000000000D+03 -.311526671129D+01 -.797390357366D-08
     .152506352502D-09  .100000000000D+01  .221800000000D+04  .000000000000D+00
     .240000000000D+01  .000000000000D+00 -.838190317154D-08  .240000000000D+02
     .172950000000D+06  .400000000000D+01
2  22  7 12  4  0  0.0 -.651560723782D-03  .568434188608D-12  .000000000000D+00
     .640000000000D+02 -.770312500000D+02  .416838791580D-08  .218212481572D+01
    -.410526990891D-05  .204015845666D-01 -.346451997757D-06  .515370204353D+04
     .187200000000D+06  .286847352982D-06  .165160841011D+01 -.409781932831D-07
     .965910580293D+00  .383375000000D+03 -.140858802722D+01 -.797711799327D-08
    -.217151902391D-09  .100000000000D+01  .221800000000D+04  .000000000000D+00
     .240000000000D+01  .000000000000D+00 -.176951289177D-07  .640000000000D+02
     .180000000000D+06  .400000000000D+01
1  22  7 12  4  0  0.0  .323158223182D-03 -.750333128963D-11  .000000000000D+00
     .118000000000D+03 -.108718750000D+03  .385694637158D-08  .201422784216D+01
    -.583939254284D-05  .120430511888D-01  .430271029472D-06  .515366603279D+04
     .187200000000D+06 -.670552253723D-07  .174398914865D+01 -.160187482834D-06
     .987864413432D+00  .388687500000D+03  .932802005576D+00 -.812069540242D-08
    -.215008955986D-09  .100000000000D+01  .221800000000D+04  .000000000000D+00
     .340000000000D+01  .000000000000D+00  .512227416039D-08  .118000000000D+03
     .180000000000D+06  .400000000000D+01
5  22  7 12  4  0  0.0 -.888127833605D-04 -.136424205266D-11  .000000000000D+00
     .280000000000D+02 -.116093750000D+03  .408267005960D-08 -.165066491865D+01
    -.599399209023D-05  .608742993791D-02  .103004276752D-04  .515375771141D+04
     .187200000000D+06  .149011611938D-06  .273533945741D+01 -.279396772385D-07
     .961856980587D+00  .172937500000D+03  .105933054804D+01 -.768996317498D-08
     .284297556420D-09  .100000000000D+01  .221800000000D+04  .000000000000D+00
     .240000000000D+01  .000000000000D+00 -.111758708954D-07  .280000000000D+02
     .180000000000D+06  .400000000000D+01
6  22  7 12  4  0  0.0  .381251797080D-03  .159161572810D-10  .000000000000D+00
     .150000000000D+02 -.950312500000D+02  .382194491363D-08  .224630510481D+01
    -.482611358166D-05  .244005559944D-02  .122003257275D-05  .515376163483D+04
     .187200000000D+06 -.204890966415D-07  .173570773471D+01  .372529029846D-08
     .987188843715D+00  .369281250000D+03 -.862625291349D+00 -.800104756146D-08
    -.167864135072D-09  .100000000000D+01  .221800000000D+04  .000000000000D+00
     .240000000000D+01  .000000000000D+00  .372529029846D-08  .150000000000D+02
     .180000000000D+06  .400000000000D+01
4  22  7 12  4  0  0.0 -.146942678839D-03  .454747350886D-11  .000000000000D+00
     .790000000000D+02  .771875000000D+01  .481341478376D-08 -.244676566344D+01
     .363215804100D-06  .189053965732D-02  .812858343124D-05  .515358488274D+04
     .187200000000D+06 -.558793544769D-08 -.242459206928D+01 -.540167093277D-07
     .961507818614D+00  .228750000000D+03 -.299167093775D+01 -.787497088129D-08
     .699672001290D-09  .100000000000D+01  .221800000000D+04  .000000000000D+00
     .240000000000D+01  .000000000000D+00 -.465661287308D-08  .591000000000D+03
     .180000000000D+06  .400000000000D+01
3  22  7 12  4  0  0.0 -.304793473333D-03 -.102318153949D-10  .000000000000D+00
     .720000000000D+02 -.125718750000D+03  .380230123825D-08  .911819753387D+00
    -.672601163387D-05  .436316407286D-02  .106301158667D-04  .515359890366D+04
     .187200000000D+06 -.372529029846D-07  .277766718679D+01  .447034835815D-07
     .974860029919D+00  .181687500000D+03  .998174283245D+00 -.762924636016D-08
     .265368196508D-09  .100000000000D+01  .221800000000D+04  .000000000000D+00
     .485000000000D+01  .000000000000D+00  .186264514923D-08  .720000000000D+02
     .180000000000D+06  .400000000000D+01
13 22  7 12  4  0  0.0  .346727669239D-03  .738964445191D-11  .000000000000D+00
     .200000000000D+01  .154062500000D+02  .475448375762D-08 -.248018027477D+01
     .568106770515D-06  .610618165229D-02  .704266130924D-05  .515366620064D+04
     .187200000000D+06  .124797224998D-06 -.232352975019D+01 -.614672899246D-07
     .968743054482D+00  .247187500000D+03  .917075678649D+00 -.786925635754D-08
     .652884338110D-09  .100000000000D+01  .221800000000D+04  .000000000000D+00
     .240000000000D+01  .000000000000D+00 -.116415321827D-07  .200000000000D+01
     .180000000000D+06  .400000000000D+01
8  22  7 12  4  0  0.0 -.758366659284D-04 -.159161572810D-11  .000000000000D+00
     .600000000000D+01  .154156250000D+03  .435410993758D-08 -.208424035700D+01
     .801682472229D-05  .738366669975D-02  .295974314213D-05  .515356421280D+04
     .187200000000D+06 -.521540641785D-07  .660384936346D+00 -.931322574615D-07
     .963161174980D+00  .325031250000D+03  .167965423497D+00 -.822641409174D-08
     .279654505876D-09  .100000000000D+01  .221800000000D+04  .000000000000D+00
     .240000000000D+01  .000000000000D+00  .512227416039D-08  .600000000000D+01
     .180000000000D+06  .400000000000D+01
10 22  7 12  4  0  0.0 -.488649122417D-03 -.137561073643D-10  .000000000000D+00
     .360000000000D+02 -.132000000000D+03  .381230165481D-08  .143694572427D-01
    -.682286918163D-05  .771085801534D-02  .114180147648D-04  .515369134521D+04
     .187200000000D+06  .428408384323D-07  .277493212832D+01  .137835741043D-06
     .974655197981D+00  .169343750000D+03 -.250360089394D+01 -.769032033271D-08
     .371086885830D-09  .100000000000D+01  .221800000000D+04  .000000000000D+00
     .240000000000D+01  .000000000000D+00  .232830643654D-08  .360000000000D+02
     .180000000000D+06  .400000000000D+01
22 22  7 12  4  0  0.0  .290867872536D-03  .648014975013D-11  .000000000000D+00
     .120000000000D+02  .109687500000D+02  .480662878681D-08 -.220163011021D+01
     .627711415291D-06  .134234739235D-01  .709481537342D-05  .515370475960D+04
     .187200000000D+06  .195577740669D-06 -.237620714661D+01  .670552253723D-07
     .961530673783D+00  .237656250000D+03 -.184593175090D+01 -.772567894840D-08
     .770389232661D-09  .100000000000D+01  .221800000000D+04  .000000000000D+00
     .240000000000D+01  .000000000000D+00 -.838190317154D-08  .120000000000D+02
     .180000000000D+06  .400000000000D+01
32 22  7 12  4  0  0.0 -.174007378519D-03 -.989075488178D-11  .000000000000D+00
     .350000000000D+02  .768750000000D+01  .488377485740D-08 -.134413842515D+01
     .549480319023D-06  .603690138087D-02  .784359872341D-05  .515361143875D+04
     .187200000000D+06  .126659870148D-06 -.246689400888D+01  .670552253723D-07
     .958408929487D+00  .224968750000D+03 -.228206877051D+01 -.791818696713D-08
     .757174396496D-09  .100000000000D+01  .221800000000D+04  .000000000000D+00
     .240000000000D+01  .000000000000D+00  .465661287308D-09  .350000000000D+02
     .180000000000D+06  .400000000000D+01
27 22  7 12  4  0  0.0  .220458488911D-03  .909494701773D-12  .000000000000D+00
     .280000000000D+02  .150937500000D+03  .416767360033D-08 -.203061383542D+01
     .786222517490D-05  .105293832021D-01  .228174030781D-05  .515366199493D+04
     .187200000000D+06  .111758708954D-07  .681022255859D+00 -.143423676491D-06
     .971911127931D+00  .344468750000D+03  .690631465447D+00 -.804104922769D-08
     .296083761649D-09  .100000000000D+01  .221800000000D+04  .000000000000D+00
     .240000000000D+01  .000000000000D+00  .186264514923D-08  .280000000000D+02
     .180000000000D+06  .400000000000D+01
20 22  7 12  4  0  0.0  .503946095705D-03 -.318323145621D-11  .000000000000D+00
     .250000000000D+02 -.139718750000D+03  .439661170795D-08  .310863653249D+01
    -.711716711521D-05  .476003915537D-02  .947155058384D-05  .515362249947D+04
     .187200000000D+06 -.465661287308D-07  .261865834611D+01 -.353902578354D-07
     .944136195999D+00  .185906250000D+03 -.311524185046D+01 -.791497254752D-08
     .180721813503D-09  .100000000000D+01  .221800000000D+04  .000000000000D+00
     .240000000000D+01  .000000000000D+00 -.838190317154D-08  .250000000000D+02
     .180000000000D+06  .400000000000D+01
17 22  7 12  4  0  0.0  .635825097561D-03  .443378667114D-11  .000000000000D+00
     .130000000000D+02  .128781250000D+03  .402159608705D-08 -.204021199705D+01
     .679120421410D-05  .135451788083D-01  .225566327572D-05  .515358338737D+04
     .187200000000D+06  .234693288803D-06  .744505136793D+00  .212341547012D-06
     .978386628016D+00  .347656250000D+03 -.148813824129D+01 -.792318717541D-08
     .127505311108D-09  .100000000000D+01  .221800000000D+04  .000000000000D+00
     .240000000000D+01  .000000000000D+00 -.111758708954D-07  .130000000000D+02
     .180000000000D+06  .400000000000D+01
12 22  7 12  4  0  0.0 -.245054252446D-03 -.591171556152D-11  .000000000000D+00
     .106000000000D+03  .988437500000D+02  .407088385437D-08  .719841350316D+00
     .517070293427D-05  .853031501174D-02  .110305845737D-04  .515377641487D+04
     .187200000000D+06 -.113621354103D-06 -.293260856223D+00  .130385160446D-07
     .969004245339D+00  .173500000000D+03  .130958242173D+01 -.777425240025D-08
    -.491449042254D-09  .100000000000D+01  .221800000000D+04  .000000000000D+00
     .240000000000D+01  .000000000000D+00 -.125728547573D-07  .106000000000D+03
     .180000000000D+06  .400000000000D+01
